OBJECT_NAME,OBJECT_ID,EPOCH,MEAN_MOTION,ECCENTRICITY,INCLINATION,RA_OF_ASC_NODE,ARG_OF_PERICENTER,MEAN_ANOMALY,EPHEMERIS_TYPE,CLASSIFICATION_TYPE,NORAD_CAT_ID,ELEMENT_SET_NO,REV_AT_EPOCH,BSTAR,MEAN_MOTION_DOT,MEAN_MOTION_DDOT
TELSTAR 12V,2015-068A,2026-07-14T03:04:47.565984,1.00269590,.0002095,0.0273,53.7868,57.1095,212.3111,0,U,41036,999,3889,0,0,0
ELEKTRO-L 2,2015-074A,2026-07-13T23:52:55.362144,1.00272120,.0000974,6.7582,70.1887,214.5456,350.8546,0,U,41105,999,3877,0,-.128E-5,0
COSMOS 2513,2015-075A,2026-07-14T03:31:59.959200,1.00270902,.0002491,0.0628,105.5619,341.6090,338.0730,0,U,41121,999,3881,0,-.144E-5,0
EXPRESS-AMU1,2015-082A,2026-07-14T03:19:23.667168,1.00272998,.0002316,0.0196,73.6357,49.4361,254.8702,0,U,41191,999,3853,0,.149E-5,0
GAOFEN-4,2015-083A,2026-07-13T16:26:26.113344,1.00274923,.000394,0.4223,83.7871,124.9375,75.1281,0,U,41194,999,3879,0,-.34E-5,0
BELINTERSAT-1,2016-001A,2026-07-14T03:23:45.746880,1.00272707,.0001862,0.0572,251.0949,179.4922,323.8491,0,U,41238,999,3850,0,.1E-5,0
IRNSS-1E,2016-003A,2026-07-13T01:01:03.714240,1.00278688,.0018977,33.2887,59.3748,176.6620,181.8769,0,U,41241,999,3833,0,-.321E-5,0
EUTELSAT 9B,2016-005A,2026-07-14T03:11:39.408000,1.00270259,.0001012,0.0339,58.7542,43.6947,246.4436,0,U,41310,999,3838,0,.55E-6,0
SES-9,2016-013A,2026-07-14T00:14:39.220224,1.00272221,.0002126,0.0170,329.8378,136.2558,297.7537,0,U,41380,999,3770,0,-.351E-5,0
EUTELSAT 65 WEST A,2016-014A,2026-07-14T01:07:52.476096,1.00269606,.0002023,0.0620,320.8960,154.4689,128.3252,0,U,41382,999,3779,0,-.282E-5,0
IRNSS-1F,2016-015A,2026-07-13T22:10:23.360736,1.00265586,.0017688,5.4141,96.1638,180.1774,20.5793,0,U,41384,999,3793,0,.147E-5,0
BEIDOU-2 IGSO-6,2016-021A,2026-06-26T02:38:38.671584,1.00258926,.0057558,60.2385,37.9495,231.0163,137.2672,0,U,41434,999,3757,0,-.145E-5,0
IRNSS-1G,2016-027A,2026-07-13T17:30:05.974848,1.00271866,.0005971,5.2592,96.8608,10.3427,216.6044,0,U,41469,999,3744,0,-.344E-5,0
JCSAT-2B,2016-028A,2026-07-13T21:02:26.663136,1.00270626,.0000685,0.0180,32.7845,55.8528,312.7198,0,U,41471,999,3739,0,-.171E-5,0
THAICOM 8,2016-031A,2026-07-14T03:31:30.006048,1.00270438,.0002939,0.0743,48.8491,25.3782,349.1433,0,U,41552,999,3698,0,-.127E-5,0
INTELSAT 31 (IS-31),2016-035A,2026-07-13T21:34:01.136064,1.00270917,.0001186,0.0229,276.7908,13.0074,230.4271,0,U,41581,999,3695,0,-.156E-5,0
BEIDOU-2 G7,2016-037A,2026-07-14T00:15:16.659936,1.00274078,.0005953,1.7834,69.4825,359.4152,337.3345,0,U,41586,999,715,0,-.361E-5,0
ABS-2A (MONGOLSAT-1),2016-038A,2026-07-14T03:30:00.150048,1.00272319,.0001219,0.0136,28.4155,41.3358,349.4584,0,U,41588,999,3697,0,-.9E-6,0
EUTELSAT 117 WEST B,2016-038B,2026-07-13T22:07:27.212736,1.00269922,.0000267,0.0083,162.9812,316.7358,26.9360,0,U,41589,999,3693,0,-.17E-6,0
BRISAT,2016-039A,2026-07-13T21:01:19.271136,1.00268836,.0001892,0.0188,23.7521,91.2252,282.5981,0,U,41591,999,3687,0,0,0
ECHOSTAR 18,2016-039B,2026-07-14T02:59:15.542016,1.00271123,.0001362,0.0181,38.3731,86.0738,150.9878,0,U,41592,999,3689,0,-.288E-5,0
MUOS-5,2016-041A,2026-07-13T23:13:32.308320,1.00271761,.0199502,2.1476,302.1882,260.6333,332.2567,0,U,41622,999,3735,0,-.136E-5,0
TIANTONG-1 1,2016-048A,2026-07-14T01:55:20.083584,1.00269270,.0004932,3.8998,43.6174,58.1102,320.4379,0,U,41725,999,3654,0,-.325E-5,0
JCSAT-16,2016-050A,2026-07-14T00:24:30.775104,1.00270354,.0000802,0.0039,108.7845,18.3997,314.7747,0,U,41729,999,3633,0,-.257E-5,0
USA 270,2016-052A,2026-07-11T11:26:02.408928,1.00269374,.0009314,4.2578,76.8776,101.3149,48.8838,0,U,41744,999,2837,0,-.349E-5,0
USA 271,2016-052B,2026-07-07T17:38:01.230144,1.00271212,.0010955,4.2217,76.9947,166.6184,44.5685,0,U,41745,999,2812,0,-.278E-5,0
INTELSAT 36 (IS-36),2016-053A,2026-07-14T03:28:37.782336,1.00270140,.0002449,0.0103,26.0683,313.5040,73.0751,0,U,41747,999,3622,0,-.3E-6,0
INSAT-3DR,2016-054A,2026-07-14T03:30:00.150048,1.00270620,.0010618,0.0672,88.6741,181.2851,148.5520,0,U,41752,999,3608,0,-.83E-6,0
GSAT-18,2016-060A,2026-07-14T03:30:00.150048,1.00271142,.0005221,0.0327,89.7945,348.4754,340.2069,0,U,41793,999,3579,0,-.83E-6,0
SKY MUSTER 2 (NBN1B),2016-060B,2026-07-13T12:26:22.409952,1.00268891,.00015869,0.0211,43.3705,82.3428,137.0751,0,U,41794,999,3578,0,0,0
HIMAWARI-9,2016-064A,2026-07-13T14:07:58.659168,1.00270073,.0001835,0.0078,101.5563,72.1625,110.4809,0,U,41836,999,3547,0,-.279E-5,0
SHIJIAN-17 (SJ-17),2016-065A,2026-07-14T04:30:04.476384,0.99865196,.0001849,5.8192,72.2765,45.9017,77.1566,0,U,41838,999,3547,0,.67E-6,0
