TELSTAR 12V             
1 41036U 15068A   26195.12832831  .00000000  00000+0  00000+0 0  9993
2 41036   0.0273  53.7868 0002095  57.1095 212.3111  1.00269590 38899
ELEKTRO-L 2             
1 41105U 15074A   26194.99508521 -.00000128  00000+0  00000+0 0  9999
2 41105   6.7582  70.1887 0000974 214.5456 350.8546  1.00272120 38770
COSMOS 2513             
1 41121U 15075A   26195.14722175 -.00000144  00000+0  00000+0 0  9997
2 41121   0.0628 105.5619 0002491 341.6090 338.0730  1.00270902 38818
EXPRESS-AMU1            
1 41191U 15082A   26195.13846837  .00000149  00000+0  00000+0 0  9997
2 41191   0.0196  73.6357 0002316  49.4361 254.8702  1.00272998 38539
GAOFEN-4                
1 41194U 15083A   26194.68502446 -.00000340  00000+0  00000+0 0  9999
2 41194   0.4223  83.7871 0003940 124.9375  75.1281  1.00274923 38792
BELINTERSAT-1           
1 41238U 16001A   26195.14150170  .00000100  00000+0  00000+0 0  9997
2 41238   0.0572 251.0949 0001862 179.4922 323.8491  1.00272707 38507
IRNSS-1E                
1 41241U 16003A   26194.04240410 -.00000321  00000+0  00000+0 0  9994
2 41241  33.2887  59.3748 0018977 176.6620 181.8769  1.00278688 38338
EUTELSAT 9B             
1 41310U 16005A   26195.13309500  .00000055  00000+0  00000+0 0  9993
2 41310   0.0339  58.7542 0001012  43.6947 246.4436  1.00270259 38381
SES-9                   
1 41380U 16013A   26195.01017616 -.00000351  00000+0  00000+0 0  9990
2 41380   0.0170 329.8378 0002126 136.2558 297.7537  1.00272221 37701
EUTELSAT 65 WEST A      
1 41382U 16014A   26195.04713514 -.00000282  00000+0  00000+0 0  9999
2 41382   0.0620 320.8960 0002023 154.4689 128.3252  1.00269606 37799
IRNSS-1F                
1 41384U 16015A   26194.92388149  .00000147  00000+0  00000+0 0  9999
2 41384   5.4141  96.1638 0017688 180.1774  20.5793  1.00265586 37939
BEIDOU-2 IGSO-6         
1 41434U 16021A   26177.11016981 -.00000145  00000+0  00000+0 0  9995
2 41434  60.2385  37.9495 0057558 231.0163 137.2672  1.00258926 37578
IRNSS-1G                
1 41469U 16027A   26194.72923582 -.00000344  00000+0  00000+0 0  9990
2 41469   5.2592  96.8608 0005971  10.3427 216.6044  1.00271866 37447
JCSAT-2B                
1 41471U 16028A   26194.87669749 -.00000171  00000+0  00000+0 0  9990
2 41471   0.0180  32.7845 0000685  55.8528 312.7198  1.00270626 37396
THAICOM 8               
1 41552U 16031A   26195.14687507 -.00000127  00000+0  00000+0 0  9998
2 41552   0.0743  48.8491 0002939  25.3782 349.1433  1.00270438 36985
INTELSAT 31 (IS-31)     
1 41581U 16035A   26194.89862426 -.00000156  00000+0  00000+0 0  9992
2 41581   0.0229 276.7908 0001186  13.0074 230.4271  1.00270917 36953
BEIDOU-2 G7             
1 41586U 16037A   26195.01060949 -.00000361  00000+0  00000+0 0  9992
2 41586   1.7834  69.4825 0005953 359.4152 337.3345  1.00274078  7154
ABS-2A (MONGOLSAT-1)    
1 41588U 16038A   26195.14583507 -.00000090  00000+0  00000+0 0  9998
2 41588   0.0136  28.4155 0001219  41.3358 349.4584  1.00272319 36977
EUTELSAT 117 WEST B     
1 41589U 16038B   26194.92184274 -.00000017  00000+0  00000+0 0  9991
2 41589   0.0083 162.9812 0000267 316.7358  26.9360  1.00269922 36935
BRISAT                  
1 41591U 16039A   26194.87591749  .00000000  00000+0  00000+0 0  9999
2 41591   0.0188  23.7521 0001892  91.2252 282.5981  1.00268836 36873
ECHOSTAR 18             
1 41592U 16039B   26195.12448544 -.00000288  00000+0  00000+0 0  9992
2 41592   0.0181  38.3731 0001362  86.0738 150.9878  1.00271123 36893
MUOS-5                  
1 41622U 16041A   26194.96773505 -.00000136  00000+0  00000+0 0  9990
2 41622   2.1476 302.1882 0199502 260.6333 332.2567  1.00271761 37351
TIANTONG-1 1            
1 41725U 16048A   26195.08009356 -.00000325  00000+0  00000+0 0  9991
2 41725   3.8998  43.6174 0004932  58.1102 320.4379  1.00269270 36541
JCSAT-16                
1 41729U 16050A   26195.01702286 -.00000257  00000+0  00000+0 0  9997
2 41729   0.0039 108.7845 0000802  18.3997 314.7747  1.00270354 36337
USA 270                 
1 41744U 16052A   26192.47641677 -.00000349  00000+0  00000+0 0  9991
2 41744   4.2578  76.8776 0009314 101.3149  48.8838  1.00269374 28376
USA 271                 
1 41745U 16052B   26188.73473646 -.00000278  00000+0  00000+0 0  9996
2 41745   4.2217  76.9947 0010955 166.6184  44.5685  1.00271212 28124
INTELSAT 36 (IS-36)     
1 41747U 16053A   26195.14488174 -.00000030  00000+0  00000+0 0  9990
2 41747   0.0103  26.0683 0002449 313.5040  73.0751  1.00270140 36220
INSAT-3DR               
1 41752U 16054A   26195.14583507 -.00000083  00000+0  00000+0 0  9991
2 41752   0.0672  88.6741 0010618 181.2851 148.5520  1.00270620 36082
GSAT-18                 
1 41793U 16060A   26195.14583507 -.00000083  00000+0  00000+0 0  9993
2 41793   0.0327  89.7945 0005221 348.4754 340.2069  1.00271142 35791
SKY MUSTER 2 (NBN1B)    
1 41794U 16060B   26194.51831493  .00000000  00000+0  00000+0 0  9992
2 41794   0.0211  43.3705 0001586  82.3428 137.0751  1.00268891 35782
HIMAWARI-9              
1 41836U 16064A   26194.58887337 -.00000279  00000+0  00000+0 0  9997
2 41836   0.0078 101.5563 0001835  72.1625 110.4809  1.00270073 35472
SHIJIAN-17 (SJ-17)      
1 41838U 16065A   26195.18755181  .00000067  00000+0  00000+0 0  9992
2 41838   5.8192  72.2765 0001849  45.9017  77.1566  0.99865196 35472
